{
    "links": {
        "self": "http://www.neowsapp.com/rest/v1/neo/3802090?api_key=iIulBulltgU6a56xZRHN4H3l9WmuAYTsLGpBGhQ2"
    },
    "id": "3802090",
    "neo_reference_id": "3802090",
    "name": "(2018 FU4)",
    "designation": "2018 FU4",
    "nasa_jpl_url": "http://ssd.jpl.nasa.gov/sbdb.cgi?sstr=3802090",
    "absolute_magnitude_h": 25.5,
    "estimated_diameter": {
        "kilometers": {
            "estimated_diameter_min": 0.0211132445,
            "estimated_diameter_max": 0.0472106499
        },
        "meters": {
            "estimated_diameter_min": 21.113244479,
            "estimated_diameter_max": 47.2106498806
        },
        "miles": {
            "estimated_diameter_min": 0.0131191578,
            "estimated_diameter_max": 0.0293353287
        },
        "feet": {
            "estimated_diameter_min": 69.2691770164,
            "estimated_diameter_max": 154.8905885541
        }
    },
    "is_potentially_hazardous_asteroid": false,
    "close_approach_data": [
        {
            "close_approach_date": "2018-03-21",
            "close_approach_date_full": "2018-Mar-21 22:16",
            "epoch_date_close_approach": 1521670560000,
            "relative_velocity": {
                "kilometers_per_second": "8.4284723857",
                "kilometers_per_hour": "30342.5005885407",
                "miles_per_hour": "18853.6498795852"
            },
            "miss_distance": {
                "astronomical": "0.0435584289",
                "lunar": "16.9442288421",
                "kilometers": "6516248.183986443",
                "miles": "4049008.8664931934"
            },
            "orbiting_body": "Earth"
        },
        {
            "close_approach_date": "2033-12-15",
            "close_approach_date_full": "2033-Dec-15 05:56",
            "epoch_date_close_approach": 2018238960000,
            "relative_velocity": {
                "kilometers_per_second": "8.8210716227",
                "kilometers_per_hour": "31755.8578417094",
                "miles_per_hour": "19731.8551128111"
            },
            "miss_distance": {
                "astronomical": "1.2509291295",
                "lunar": "486.6114313755",
                "kilometers": "187136333.294154165",
                "miles": "116281125.481550877"
            },
            "orbiting_body": "Juptr"
        },
        {
            "close_approach_date": "2090-01-25",
            "close_approach_date_full": "2090-Jan-25 11:03",
            "epoch_date_close_approach": 3789025380000,
            "relative_velocity": {
                "kilometers_per_second": "19.6143800768",
                "kilometers_per_hour": "70611.7682763112",
                "miles_per_hour": "43875.406793689"
            },
            "miss_distance": {
                "astronomical": "0.4910136575",
                "lunar": "191.0043127675",
                "kilometers": "73454597.302909525",
                "miles": "45642570.289920445"
            },
            "orbiting_body": "Earth"
        },
        {
            "close_approach_date": "2093-06-27",
            "close_approach_date_full": "2093-Jun-27 15:21",
            "epoch_date_close_approach": 3896954460000,
            "relative_velocity": {
                "kilometers_per_second": "10.6685747496",
                "kilometers_per_hour": "38406.8690984095",
                "miles_per_hour": "23864.5348572867"
            },
            "miss_distance": {
                "astronomical": "1.85024614",
                "lunar": "719.74574846",
                "kilometers": "276792881.5197218",
                "miles": "171991121.24208884"
            },
            "orbiting_body": "Juptr"
        }
    ],
    "orbital_data": {
        "orbit_id": "5",
        "orbit_determination_date": "2018-04-20 06:26:26",
        "first_observation_date": "2018-03-22",
        "last_observation_date": "2018-04-19",
        "data_arc_in_days": 28,
        "observations_used": 64,
        "orbit_uncertainty": "7",
        "minimum_orbit_intersection": ".0330323",
        "jupiter_tisserand_invariant": "2.981",
        "epoch_osculation": "2459000.5",
        "eccentricity": ".6365773439307072",
        "semi_major_axis": "2.814838402839395",
        "inclination": "3.766673413453526",
        "ascending_node_longitude": "1.981213050804086",
        "orbital_period": "1724.958408818809",
        "perihelion_distance": "1.022976048765739",
        "perihelion_argument": "164.284324043718",
        "aphelion_distance": "4.606700756913051",
        "perihelion_time": "2458188.002290360440",
        "mean_anomaly": "169.5688278481651",
        "mean_motion": ".2087006841205611",
        "equinox": "J2000",
        "orbit_class": {
            "orbit_class_type": "AMO",
            "orbit_class_description": "Near-Earth asteroid orbits similar to that of 1221 Amor",
            "orbit_class_range": "1.017 AU < q (perihelion) < 1.3 AU"
        }
    },
    "is_sentry_object": false
}